{"type": "FeatureCollection", "features": [ {"type": "Feature", "properties": {"norad_id": 43058, "name": "GSAT0218 (GALILEO 22)", "group": "galileo", "lat": -54.71830887628864, "lon": 126.4822320653695, "alt_km": 23221.841239296937, "timestamp": "2025-12-16T13:52:37.786480+00:00", "meta": {"OBJECT_NAME": "GSAT0218 (GALILEO 22)", "OBJECT_ID": "2017-079D", "EPOCH": "2025-12-12T15:04:31.769472", "MEAN_MOTION": 1.70474063, "ECCENTRICITY": 0.00028411, "INCLINATION": 55.1287, "RA_OF_ASC_NODE": 226.6365, "ARG_OF_PERICENTER": 306.3289, "MEAN_ANOMALY": 53.7237, "EPHEMERIS_TYPE": 0, "CLASSIFICATION_TYPE": "U", "NORAD_CAT_ID": 43058, "ELEMENT_SET_NO": 999, "REV_AT_EPOCH": 4983, "BSTAR": 0, "MEAN_MOTION_DOT": 1.7e-07, "MEAN_MOTION_DDOT": 0}, "tle": {"line1": "1 43058U 17079D   25346.62814548  .00000017  00000+0  00000+0 0  9998", "line2": "2 43058  55.1287 226.6365 0002841 306.3289  53.7237  1.70474063 49839"}}, "geometry": {"type": "Point", "coordinates": [126.4822320653695, -54.71830887628864]}}, {"type": "Feature", "properties": {"norad_id": 43564, "name": "GSAT0221 (GALILEO 25)", "group": "galileo", "lat": -29.619527098772046, "lon": -34.77672385854238, "alt_km": 23210.636155325697, "timestamp": "2025-12-16T13:52:37.786491+00:00", "meta": {"OBJECT_NAME": "GSAT0221 (GALILEO 25)", "OBJECT_ID": "2018-060A", "EPOCH": "2025-12-13T16:53:40.160256", "MEAN_MOTION": 1.70475883, "ECCENTRICITY": 0.00067122, "INCLINATION": 57.2276, "RA_OF_ASC_NODE": 346.7914, "ARG_OF_PERICENTER": 283.6018, "MEAN_ANOMALY": 76.3423, "EPHEMERIS_TYPE": 0, "CLASSIFICATION_TYPE": "U", "NORAD_CAT_ID": 43564, "ELEMENT_SET_NO": 999, "REV_AT_EPOCH": 4600, "BSTAR": 0, "MEAN_MOTION_DOT": -8.5e-07, "MEAN_MOTION_DDOT": 0}, "tle": {"line1": "1 43564U 18060A   25347.70393704 -.00000085  00000+0  00000+0 0  9993", "line2": "2 43564  57.2276 346.7914 0006712 283.6018  76.3423  1.70475883 46009"}}, "geometry": {"type": "Point", "coordinates": [-34.77672385854238, -29.619527098772046]}}, {"type": "Feature", "properties": {"norad_id": 43565, "name": "GSAT0222 (GALILEO 26)", "group": "galileo", "lat": -7.8100675602236365, "lon": 171.78422885915955, "alt_km": 23218.690146429202, "timestamp": "2025-12-16T13:52:37.786503+00:00", "meta": {"OBJECT_NAME": "GSAT0222 (GALILEO 26)", "OBJECT_ID": "2018-060B", "EPOCH": "2025-12-14T12:14:12.279840", "MEAN_MOTION": 1.70475606, "ECCENTRICITY": 0.00061133, "INCLINATION": 57.2308, "RA_OF_ASC_NODE": 346.7727, "ARG_OF_PERICENTER": 264.5011, "MEAN_ANOMALY": 95.4481, "EPHEMERIS_TYPE": 0, "CLASSIFICATION_TYPE": "U", "NORAD_CAT_ID": 43565, "ELEMENT_SET_NO": 999, "REV_AT_EPOCH": 4606, "BSTAR": 0, "MEAN_MOTION_DOT": -8.4e-07, "MEAN_MOTION_DDOT": 0}, "tle": {"line1": "1 43565U 18060B   25348.50986435 -.00000084  00000+0  00000+0 0  9991", "line2": "2 43565  57.2308 346.7727 0006113 264.5011  95.4481  1.70475606 46069"}}, "geometry": {"type": "Point", "coordinates": [171.78422885915955, -7.8100675602236365]}}, {"type": "Feature", "properties": {"norad_id": 43566, "name": "GSAT0219 (GALILEO 23)", "group": "galileo", "lat": 42.630480155455345, "lon": 23.08995444292969, "alt_km": 23227.10751840522, "timestamp": "2025-12-16T13:52:37.786514+00:00", "meta": {"OBJECT_NAME": "GSAT0219 (GALILEO 23)", "OBJECT_ID": "2018-060C", "EPOCH": "2025-12-15T07:37:19.968672", "MEAN_MOTION": 1.70475843, "ECCENTRICITY": 0.00058028, "INCLINATION": 57.2299, "RA_OF_ASC_NODE": 346.7524, "ARG_OF_PERICENTER": 287.2697, "MEAN_ANOMALY": 72.6854, "EPHEMERIS_TYPE": 0, "CLASSIFICATION_TYPE": "U", "NORAD_CAT_ID": 43566, "ELEMENT_SET_NO": 999, "REV_AT_EPOCH": 4605, "BSTAR": 0, "MEAN_MOTION_DOT": -8.3e-07, "MEAN_MOTION_DDOT": 0}, "tle": {"line1": "1 43566U 18060C   25349.31759223 -.00000083  00000+0  00000+0 0  9994", "line2": "2 43566  57.2299 346.7524 0005802 287.2697  72.6854  1.70475843 46053"}}, "geometry": {"type": "Point", "coordinates": [23.08995444292969, 42.630480155455345]}}, {"type": "Feature", "properties": {"norad_id": 43567, "name": "GSAT0220 (GALILEO 24)", "group": "galileo", "lat": -56.34608862541826, "lon": -88.68449022333127, "alt_km": 23210.04428182123, "timestamp": "2025-12-16T13:52:37.786525+00:00", "meta": {"OBJECT_NAME": "GSAT0220 (GALILEO 24)", "OBJECT_ID": "2018-060D", "EPOCH": "2025-12-13T18:41:25.404000", "MEAN_MOTION": 1.70475925, "ECCENTRICITY": 0.00061008, "INCLINATION": 57.2299, "RA_OF_ASC_NODE": 346.7937, "ARG_OF_PERICENTER": 285.541, "MEAN_ANOMALY": 74.4106, "EPHEMERIS_TYPE": 0, "CLASSIFICATION_TYPE": "U", "NORAD_CAT_ID": 43567, "ELEMENT_SET_NO": 999, "REV_AT_EPOCH": 4601, "BSTAR": 0, "MEAN_MOTION_DOT": -8.5e-07, "MEAN_MOTION_DDOT": 0}, "tle": {"line1": "1 43567U 18060D   25347.77876625 -.00000085  00000+0  00000+0 0  9991", "line2": "2 43567  57.2299 346.7937 0006100 285.5410  74.4106  1.70475925 46015"}}, "geometry": {"type": "Point", "coordinates": [-88.68449022333127, -56.34608862541826]}}, {"type": "Feature", "properties": {"norad_id": 49809, "name": "GSAT0223 (GALILEO 27)", "group": "galileo", "lat": 7.399906405385841, "lon": -8.591736052110898, "alt_km": 23227.563947501567, "timestamp": "2025-12-16T13:52:37.786537+00:00", "meta": {"OBJECT_NAME": "GSAT0223 (GALILEO 27)", "OBJECT_ID": "2021-116A", "EPOCH": "2025-12-10T02:39:25.687008", "MEAN_MOTION": 1.70475768, "ECCENTRICITY": 0.000463, "INCLINATION": 57.2198, "RA_OF_ASC_NODE": 346.7831, "ARG_OF_PERICENTER": 251.6037, "MEAN_ANOMALY": 107.9349, "EPHEMERIS_TYPE": 0, "CLASSIFICATION_TYPE": "U", "NORAD_CAT_ID": 49809, "ELEMENT_SET_NO": 999, "REV_AT_EPOCH": 2495, "BSTAR": 0, "MEAN_MOTION_DOT": -8.7e-07, "MEAN_MOTION_DDOT": 0}, "tle": {"line1": "1 49809U 21116A   25344.11071397 -.00000087  00000+0  00000+0 0  9992", "line2": "2 49809  57.2198 346.7831 0004630 251.6037 107.9349  1.70475768 24951"}}, "geometry": {"type": "Point", "coordinates": [-8.591736052110898, 7.399906405385841]}}, {"type": "Feature", "properties": {"norad_id": 49810, "name": "GSAT0224 (GALILEO 28)", "group": "galileo", "lat": 45.863387624350906, "lon": 124.98217285339354, "alt_km": 23224.65490841883, "timestamp": "2025-12-16T13:52:37.786549+00:00", "meta": {"OBJECT_NAME": "GSAT0224 (GALILEO 28)", "OBJECT_ID": "2021-116B", "EPOCH": "2025-12-14T00:56:09.559392", "MEAN_MOTION": 1.70476108, "ECCENTRICITY": 0.00038616, "INCLINATION": 57.22, "RA_OF_ASC_NODE": 346.6758, "ARG_OF_PERICENTER": 256.6425, "MEAN_ANOMALY": 106.3645, "EPHEMERIS_TYPE": 0, "CLASSIFICATION_TYPE": "U", "NORAD_CAT_ID": 49810, "ELEMENT_SET_NO": 999, "REV_AT_EPOCH": 2505, "BSTAR": 0, "MEAN_MOTION_DOT": -8.5e-07, "MEAN_MOTION_DDOT": 0}, "tle": {"line1": "1 49810U 21116B   25348.03899953 -.00000085  00000+0  00000+0 0  9993", "line2": "2 49810  57.2200 346.6758 0003861 256.6425 106.3645  1.70476108 25058"}}, "geometry": {"type": "Point", "coordinates": [124.98217285339354, 45.863387624350906]}}, {"type": "Feature", "properties": {"norad_id": 59598, "name": "GSAT0225 (GALILEO 29)", "group": "galileo", "lat": 48.49334339868419, "lon": -126.09137164388983, "alt_km": 23213.696394749804, "timestamp": "2025-12-16T13:52:37.786560+00:00", "meta": {"OBJECT_NAME": "GSAT0225 (GALILEO 29)", "OBJECT_ID": "2024-079A", "EPOCH": "2025-12-13T14:17:14.853120", "MEAN_MOTION": 1.7047497, "ECCENTRICITY": 0.00020845, "INCLINATION": 55.0023, "RA_OF_ASC_NODE": 106.2711, "ARG_OF_PERICENTER": 178.8578, "MEAN_ANOMALY": 264.3288, "EPHEMERIS_TYPE": 0, "CLASSIFICATION_TYPE": "U", "NORAD_CAT_ID": 59598, "ELEMENT_SET_NO": 999, "REV_AT_EPOCH": 1015, "BSTAR": 0, "MEAN_MOTION_DOT": -1e-08, "MEAN_MOTION_DDOT": 0}, "tle": {"line1": "1 59598U 24079A   25347.59531080 -.00000001  00000+0  00000+0 0  9990", "line2": "2 59598  55.0023 106.2711 0002084 178.8578 264.3288  1.70474970 10158"}}, "geometry": {"type": "Point", "coordinates": [-126.09137164388983, 48.49334339868419]}}, {"type": "Feature", "properties": {"norad_id": 59600, "name": "GSAT0227 (GALILEO 30)", "group": "galileo", "lat": 1.096425083385751, "lon": 106.94109970703548, "alt_km": 23225.98019448655, "timestamp": "2025-12-16T13:52:37.786571+00:00", "meta": {"OBJECT_NAME": "GSAT0227 (GALILEO 30)", "OBJECT_ID": "2024-079C", "EPOCH": "2025-12-08T22:48:42.234912", "MEAN_MOTION": 1.70474719, "ECCENTRICITY": 0.0003262, "INCLINATION": 54.9946, "RA_OF_ASC_NODE": 106.4003, "ARG_OF_PERICENTER": 114.182, "MEAN_ANOMALY": 245.816, "EPHEMERIS_TYPE": 0, "CLASSIFICATION_TYPE": "U", "NORAD_CAT_ID": 59600, "ELEMENT_SET_NO": 999, "REV_AT_EPOCH": 1012, "BSTAR": 0, "MEAN_MOTION_DOT": 9e-08, "MEAN_MOTION_DDOT": 0}, "tle": {"line1": "1 59600U 24079C   25342.95048883  .00000009  00000+0  00000+0 0  9990", "line2": "2 59600  54.9946 106.4003 0003262 114.1820 245.8160  1.70474719 10123"}}, "geometry": {"type": "Point", "coordinates": [106.94109970703548, 1.096425083385751]}}, {"type": "Feature", "properties": {"norad_id": 61182, "name": "GSAT0232 (GALILEO 32)", "group": "galileo", "lat": -12.92531609283477, "lon": 55.49643119909084, "alt_km": 23218.73031312605, "timestamp": "2025-12-16T13:52:37.786582+00:00", "meta": {"OBJECT_NAME": "GSAT0232 (GALILEO 32)", "OBJECT_ID": "2024-167A", "EPOCH": "2025-12-15T09:09:10.050912", "MEAN_MOTION": 1.70473627, "ECCENTRICITY": 0.00018812, "INCLINATION": 55.2399, "RA_OF_ASC_NODE": 226.3583, "ARG_OF_PERICENTER": 210.2547, "MEAN_ANOMALY": 331.0661, "EPHEMERIS_TYPE": 0, "CLASSIFICATION_TYPE": "U", "NORAD_CAT_ID": 61182, "ELEMENT_SET_NO": 999, "REV_AT_EPOCH": 774, "BSTAR": 0, "MEAN_MOTION_DOT": 4.1e-07, "MEAN_MOTION_DDOT": 0}, "tle": {"line1": "1 61182U 24167A   25349.38136633  .00000041  00000+0  00000+0 0  9997", "line2": "2 61182  55.2399 226.3583 0001881 210.2547 331.0661  1.70473627  7746"}}, "geometry": {"type": "Point", "coordinates": [55.49643119909084, -12.92531609283477]}}]}